WORLDVIEW-1 (WV-1)      
1 32060U 07041A   26197.76466494  .00003046  00000+0  12657-3 0  9990
2 32060  97.3908 317.0939 0001676 198.8827 161.2348 15.24568766 47381
WORLDVIEW-2 (WV-2)      
1 35946U 09055A   26197.80737633  .00000031  00000+0  24629-4 0  9998
2 35946  98.4756 270.8537 0005376 125.9295 234.2391 14.37907151879909
YAOGAN-10               
1 36834U 10038A   26197.86797631  .00000728  00000+0  90770-4 0  9991
2 36834  97.8966 221.0356 0001691  81.7122  41.5124 14.85432784861613
VNREDSAT 1              
1 39160U 13021B   26197.87059502  .00000330  00000+0  70169-4 0  9999
2 39160  97.9063 250.1452 0001578  78.8800 281.2581 14.64885055704639
WORLDVIEW-3 (WV-3)      
1 40115U 14048A   26197.81424376  .00000356  00000+0  47888-4 0  9990
2 40115  97.8556 272.2369 0001423 153.3342 206.7946 14.85065656646304
YAOGAN-21               
1 40143U 14053A   26197.85579616  .00002339  00000+0  91477-4 0  9995
2 40143  97.1451 236.8230 0007630   2.1597 357.9674 15.26769421659481
UMBRA-09                
1 60541U 24149CB  26197.65522252  .00008854  00000+0  42782-3 0  9990
2 60541  97.6973 285.3829 0002071 198.7933 161.3225 15.18876443105199
UMBRA-10                
1 60547U 24149CH  26197.65476736  .00009250  00000+0  44679-3 0  9999
2 60547  97.6978 285.4123 0001728 164.0739 196.0550 15.18876664105209
UMBRA-11                
1 66748U 25276CL  26197.87039250  .00012086  00000+0  44728-3 0  9996
2 66748  97.4187 272.3387 0002838 180.8532 179.2703 15.27821127 35024
UMBRA-12                
1 67371U 26004J   26197.53240567  .00002347  00000+0  25185-3 0  9992
2 67371  97.8023 195.9005 0007330  49.3470 310.8384 14.89538275 27675
